NORAD_CAT_ID,OBJECT_NAME,OBJECT_TYPE,EPOCH,MEAN_MOTION,ECCENTRICITY,INCLINATION,RA_OF_ASC_NODE,ARG_OF_PERICENTER,MEAN_ANOMALY,BSTAR,MEAN_MOTION_DOT,MEAN_MOTION_DDOT,TLE_LINE0,TLE_LINE1,TLE_LINE2,SEMIMAJOR_AXIS,PERIOD,APOGEE,PERIGEE,DECAYED
51879.0,STARLINK-3572,PAYLOAD,2022-04-05 22:00:00,15.73151954,9.31e-05,53.2158,339.2972,96.5843,88.3252,0.0001745,0.00023889,0.0,0 STARLINK-3572,1 51879U 22022AD  22095.91667824  .00023889  00000-0  17450-3 0  9999,2 51879  53.2158 339.2972 0000931  96.5843  88.3252 15.73151954  3708,6728.031999999997,91.536,350.524,349.271,0.0
51879.0,STARLINK-3572,PAYLOAD,2022-04-06 06:00:02,15.73184206,8.71e-05,53.2155,337.6476,93.5013,180.3385,0.00034536,0.00048094,0.0,0 STARLINK-3572,1 51879U 22022AD  22096.25002315  .00048094  00000-0  34536-3 0  9994,2 51879  53.2155 337.6476 0000871  93.5013 180.3385 15.73184206  6513,6727.94,91.534,350.391,349.219,0.0
51879.0,STARLINK-3572,PAYLOAD,2022-04-06 14:00:01,15.73227794,9.85e-05,53.2155,335.9965,106.1476,256.5562,0.00015374,0.00021036,0.0,0 STARLINK-3572,1 51879U 22022AD  22096.58334491  .00021036  00000-0  15374-3 0  9999,2 51879  53.2155 335.9965 0000985 106.1476 256.5562 15.73227794  3708,6727.816,91.532,350.344,349.01800000000014,0.0
51879.0,STARLINK-3572,PAYLOAD,2022-04-06 20:00:01,15.73229403,0.0001104,53.2155,334.7606,99.0514,240.3797,-8.0639e-05,-0.00011935,0.0,0 STARLINK-3572,1 51879U 22022AD  22096.83334491 -.00011935  00000-0 -80639-4 0  9993,2 51879  53.2155 334.7606 0001104  99.0514 240.3797 15.73229403  6606,6727.811,91.531,350.4190000000001,348.934,0.0
51879.0,STARLINK-3572,PAYLOAD,2022-04-06 22:00:00,15.73206799,0.0001118,53.2153,334.3489,94.6029,357.0741,0.00027443,0.0003808,0.0,0 STARLINK-3572,1 51879U 22022AD  22096.91667824  .00038080  00000-0  27443-3 0  9992,2 51879  53.2153 334.3489 0001118  94.6029 357.0741 15.73206799  3690,6727.876,91.533,350.49300000000005,348.98900000000015,0.0
51879.0,STARLINK-3572,PAYLOAD,2022-04-07 14:00:01,15.73219467,0.0001172,53.215,331.0475,107.9528,161.6653,1.3047e-05,1.213e-05,0.0,0 STARLINK-3572,1 51879U 22022AD  22097.58334491  .00001213  00000-0  13047-4 0  9991,2 51879  53.2150 331.0475 0001172 107.9528 161.6653 15.73219467  3707,6727.84,91.532,350.49300000000005,348.916,0.0
51879.0,STARLINK-3572,PAYLOAD,2022-04-07 20:00:01,15.73238088,0.000109,53.2154,329.8119,101.3819,144.941,-0.00019673,-0.00028181,0.0,0 STARLINK-3572,1 51879U 22022AD  22097.83334491 -.00028181  00000-0 -19673-3 0  9994,2 51879  53.2154 329.8119 0001090 101.3819 144.9410 15.73238088  6765,6727.7869999999975,91.531,350.385,348.918,0.0
51879.0,STARLINK-3572,PAYLOAD,2022-04-07 22:00:00,15.73247896,0.0001079,53.2153,329.3999,95.9826,262.5775,-0.00039359,-0.00055605,0.0,0 STARLINK-3572,1 51879U 22022AD  22097.91667824 -.00055605  00000-0 -39359-3 0  9996,2 51879  53.2153 329.3999 0001079  95.9826 262.5775 15.73247896  3684,6727.759,91.53,350.35,348.898,0.0
51879.0,STARLINK-3572,PAYLOAD,2022-04-08 14:00:03,15.73226929,0.0001051,53.2153,326.0987,107.3229,69.2847,-0.0002528,-0.00035987,0.0,0 STARLINK-3572,1 51879U 22022AD  22098.58336806 -.00035987  00000-0 -25280-3 0  9992,2 51879  53.2153 326.0987 0001051 107.3229  69.2847 15.73226929  6881,6727.818,91.532,350.39,348.976,0.0
51879.0,STARLINK-3572,PAYLOAD,2022-04-08 22:00:00,15.73170277,9.47e-05,53.215,324.4514,94.3063,171.12900000000005,-6.6157e-05,-9.881e-05,0.0,0 STARLINK-3572,1 51879U 22022AD  22098.91667824 -.00009881  00000-0 -66157-4 0  9999,2 51879  53.2150 324.4514 0000947  94.3063 171.1290 15.73170277  3673,6727.98,91.535,350.482,349.208,0.0
51879.0,STARLINK-3572,PAYLOAD,2022-04-09 14:00:01,15.73207776,0.0001056,53.2148,321.1504,107.9329,335.2817,-0.00038835,-0.00054785,0.0,0 STARLINK-3572,1 51879U 22022AD  22099.58334491 -.00054785  00000-0 -38835-3 0  9998,2 51879  53.2148 321.1504 0001056 107.9329 335.2817 15.73207776  3708,6727.873000000001,91.533,350.4480000000001,349.028,0.0
51879.0,STARLINK-3572,PAYLOAD,2022-04-09 22:00:00,15.73163571,0.0001185,53.215,319.5029,92.1183,80.0516,1.5958e-05,1.617e-05,0.0,0 STARLINK-3572,1 51879U 22022AD  22099.91667824  .00001617  00000-0  15958-4 0  9990,2 51879  53.2150 319.5029 0001185  92.1183  80.0516 15.73163571  7091,6727.999,91.535,350.661,349.06699999999995,0.0
51879.0,STARLINK-3572,PAYLOAD,2022-04-10 06:00:02,15.73200845,0.0001164,53.2148,317.8527,94.2212,166.9061,0.00025647,0.00035527,0.0,0 STARLINK-3572,1 51879U 22022AD  22100.25002315  .00035527  00000-0  25647-3 0  9990,2 51879  53.2148 317.8527 0001164  94.2212 166.9061 15.73200845  7146,6727.893,91.533,350.541,348.975,0.0
51879.0,STARLINK-3572,PAYLOAD,2022-04-10 14:00:01,15.73244762,0.0001284999999999,53.2149,316.2021,101.0742,248.9076,-0.00028055,-0.00039882,0.0,0 STARLINK-3572,1 51879U 22022AD  22100.58334491 -.00039882  00000-0 -28055-3 0  9995,2 51879  53.2149 316.2021 0001285 101.0742 248.9076 15.73244762  3709,6727.768,91.531,350.497,348.76800000000014,0.0
51879.0,STARLINK-3572,PAYLOAD,2022-04-10 20:00:01,15.73253895,0.0001257,53.2145,314.9665,93.0211,233.7234,-0.00057837,-0.00081197,0.0,0 STARLINK-3572,1 51879U 22022AD  22100.83334491 -.00081197  00000-0 -57837-3 0  9999,2 51879  53.2145 314.9665 0001257  93.0211 233.7234 15.73253895  7231,6727.7419999999975,91.53,350.452,348.761,0.0
51879.0,STARLINK-3572,PAYLOAD,2022-04-10 22:00:00,15.73225548,0.000125,53.2145,314.5547,90.269,348.7243,-0.00027385,-0.00038917,0.0,0 STARLINK-3572,1 51879U 22022AD  22100.91667824 -.00038917  00000-0 -27385-3 0  9994,2 51879  53.2145 314.5547 0001250  90.2690 348.7243 15.73225548  3708,6727.821999999999,91.532,350.528,348.846,0.0
51879.0,STARLINK-3572,PAYLOAD,2022-04-11 12:00:00,15.73160659,0.0001409,53.2139,311.6658,102.0837,42.4981,0.00015477,0.00021119,0.0,0 STARLINK-3572,1 51879U 22022AD  22101.50001157  .00021119  00000-0  15477-3 0  9994,2 51879  53.2139 311.6658 0001409 102.0837  42.4981 15.73160659  7334,6728.007,91.535,350.82,348.9240000000001,0.0
51879.0,STARLINK-3572,PAYLOAD,2022-04-11 14:00:01,15.73195657,0.0001424,53.2142,311.2536,102.9102,153.8826,-0.00033673,-0.00047603,0.0,0 STARLINK-3572,1 51879U 22022AD  22101.58334491 -.00047603  00000-0 -33673-3 0  9998,2 51879  53.2142 311.2536 0001424 102.9102 153.8826 15.73195657  3708,6727.908,91.533,350.731,348.815,0.0
51879.0,STARLINK-3572,PAYLOAD,2022-04-11 20:00:01,15.73170655,0.0001403,53.2142,310.0183,92.7176,140.7703,-0.0006756,-0.00094264,0.0,0 STARLINK-3572,1 51879U 22022AD  22101.83334491 -.00094264  00000-0 -67560-3 0  9993,2 51879  53.2142 310.0183 0001403  92.7176 140.7703 15.73170655  7396,6727.979,91.535,350.788,348.9,0.0
51879.0,STARLINK-3572,PAYLOAD,2022-04-11 22:00:00,15.73133883,0.0001389,53.2143,309.6063,91.8536,253.8594,-0.00025524,-0.00036186,0.0,0 STARLINK-3572,1 51879U 22022AD  22101.91667824 -.00036186  00000-0 -25524-3 0  9994,2 51879  53.2143 309.6063 0001389  91.8536 253.8594 15.73133883  3696,6728.084,91.537,350.8830000000001,349.014,0.0
51879.0,STARLINK-3572,PAYLOAD,2022-04-12 04:00:00,15.73115047,0.0001139,53.214,308.3687,90.0366,232.3084,0.00033263,0.00046149,0.0,0 STARLINK-3572,1 51879U 22022AD  22102.16667824  .00046149  00000-0  33263-3 0  9999,2 51879  53.2140 308.3687 0001139  90.0366 232.3084 15.73115047  7441,6728.137,91.538,350.769,349.236,0.0
51879.0,STARLINK-3572,PAYLOAD,2022-04-12 12:00:00,15.73140243,0.0001107,53.214,306.7176,100.3926,310.7909,0.001138,0.00161788,0.0,0 STARLINK-3572,1 51879U 22022AD  22102.50001157  .00161788  00000-0  11380-2 0  9990,2 51879  53.2140 306.7176 0001107 100.3926 310.7909 15.73140243  7496,6728.066,91.537,350.675,349.186,0.0
51879.0,STARLINK-3572,PAYLOAD,2022-04-12 14:00:01,15.73215063,0.0001138,53.2142,306.3056,102.5768,60.8107,0.00034944,0.00048738,0.0,0 STARLINK-3572,1 51879U 22022AD  22102.58334491  .00048738  00000-0  34944-3 0  9999,2 51879  53.2142 306.3056 0001138 102.5768  60.8107 15.73215063  3709,6727.852,91.532,350.483,348.952,0.0
51879.0,STARLINK-3572,PAYLOAD,2022-04-12 20:00:01,15.73256335,0.0001111,53.2136,305.0701,86.6139,53.5034,-0.00043482,-0.00061346,0.0,0 STARLINK-3572,1 51879U 22022AD  22102.83334491 -.00061346  00000-0 -43482-3 0  9996,2 51879  53.2136 305.0701 0001111  86.6139  53.5034 15.73256335  7541,6727.735,91.53,350.347,348.852,0.0
51879.0,STARLINK-3572,PAYLOAD,2022-04-12 22:00:00,15.73211064,0.0001196,53.2137,304.6581,84.02600000000002,168.3481,0.00018293,0.00025142,0.0,0 STARLINK-3572,1 51879U 22022AD  22102.91667824  .00025142  00000-0  18293-3 0  9998,2 51879  53.2137 304.6581 0001196  84.0260 168.3481 15.73211064  3696,6727.864000000001,91.533,350.533,348.9240000000001,0.0
51879.0,STARLINK-3572,PAYLOAD,2022-04-13 04:00:00,15.73270687,0.0001215,53.2129,303.42,88.6955,140.3845,-0.00060637,-0.00085119,0.0,0 STARLINK-3572,1 51879U 22022AD  22103.16667824 -.00085119  00000-0 -60637-3 0  9997,2 51879  53.2129 303.4200 0001215  88.6955 140.3845 15.73270687  7600,6727.694,91.529,350.376,348.741,0.0
51879.0,STARLINK-3572,PAYLOAD,2022-04-13 14:00:03,15.73409688,0.0001283,53.2149,301.3468,95.6277,334.8280000000001,-0.0033205,-0.00446728,0.0,0 STARLINK-3572,1 51879U 22022AD  22103.58336806 -.00446728  00000-0 -33205-2 0  9993,2 51879  53.2149 301.3468 0001283  95.6277 334.8280 15.73409688  7669,6727.297,91.521,350.026,348.2990000000001,0.0
51879.0,STARLINK-3572,PAYLOAD,2022-04-13 22:00:00,15.73189134,0.0001033,53.2134,299.7089,82.9017,76.4386,0.00068016,0.00095887,0.0,0 STARLINK-3572,1 51879U 22022AD  22103.91667824  .00095887  00000-0  68016-3 0  9990,2 51879  53.2134 299.7089 0001033  82.9017  76.4386 15.73189134  7719,6727.926,91.534,350.486,349.096,0.0
51879.0,STARLINK-3572,PAYLOAD,2022-04-14 06:00:00,15.73281551,0.0001074,53.2133,298.0577,88.2261,160.0478,-0.00052262,-0.00073581,0.0,0 STARLINK-3572,1 51879U 22022AD  22104.25001157 -.00073581  00000-0 -52262-3 0  9994,2 51879  53.2133 298.0577 0001074  88.2261 160.0478 15.73281551  7771,6727.663000000001,91.528,350.25,348.805,0.0
